OBJECT C                
1 57582U 23117C   25005.18923135  .00016280  00000+0  71637-3 0  9998
2 57582  97.4646  81.0424 0008555 315.8431  44.2121 15.21908229 77841
